{
"type": "FeatureCollection",
"name": "nc_vtd_geo",
"features": [
{ "type": "Feature", "properties": { "vtd": "371771", "county_nam": "TYRRELL", "fips": "37177" }, "geometry": { "type": "Polygon", "coordinates": [ [ [ -76.020573, 35.841085 ], [ -76.017694, 35.865356 ], [ -76.009881, 35.892855 ], [ -76.008348, 35.895802 ], [ -75.992284, 35.909855 ], [ -75.985774, 35.922019 ], [ -75.981624, 35.954005 ], [ -75.978991, 35.96446 ], [ -75.973152, 35.976643 ], [ -75.965582, 35.983412 ], [ -75.954374, 35.990064 ], [ -75.927507, 36.000159 ], [ -75.874631, 36.018067 ], [ -75.840046, 36.028834 ], [ -75.864669, 36.036164 ], [ -75.874806, 36.041789 ], [ -75.889534, 36.055339 ], [ -75.90196, 36.074108 ], [ -75.906295, 36.085877 ], [ -75.950459, 36.087958 ], [ -76.022398, 36.086654 ], [ -76.022607, 36.096725 ], [ -76.041881, 36.087235 ], [ -76.058217, 36.080593 ], [ -76.101065, 36.069526 ], [ -76.125756, 36.064906 ], [ -76.152443, 36.015503 ], [ -76.176889, 35.971114 ], [ -76.202678, 35.923298 ], [ -76.17907, 35.875159 ], [ -76.158793, 35.815261 ], [ -76.084862, 35.828699 ], [ -76.020573, 35.841085 ] ] ] } },
{ "type": "Feature", "properties": { "vtd": "3717714", "county_nam": "TYRRELL", "fips": "37177" }, "geometry": { "type": "Polygon", "coordinates": [ [ [ -76.269316, 35.690556 ], [ -76.297899, 35.608895 ], [ -76.286135, 35.604552 ], [ -76.276834, 35.605176 ], [ -76.270279, 35.608026 ], [ -76.265358, 35.603257 ], [ -76.251979, 35.605617 ], [ -76.246105, 35.602825 ], [ -76.229735, 35.599749 ], [ -76.225536, 35.601839 ], [ -76.214165, 35.59825 ], [ -76.210097, 35.601613 ], [ -76.198471, 35.61944 ], [ -76.192606, 35.646359 ], [ -76.18488, 35.648468 ], [ -76.17823, 35.654442 ], [ -76.181778, 35.665513 ], [ -76.176382, 35.667797 ], [ -76.175905, 35.672069 ], [ -76.169902, 35.673746 ], [ -76.175235, 35.679818 ], [ -76.175861, 35.690698 ], [ -76.168555, 35.698874 ], [ -76.169589, 35.701957 ], [ -76.177986, 35.705915 ], [ -76.186107, 35.713696 ], [ -76.18982, 35.721411 ], [ -76.196678, 35.727315 ], [ -76.215155, 35.726752 ], [ -76.222128, 35.73302 ], [ -76.231225, 35.731776 ], [ -76.240331, 35.717936 ], [ -76.240957, 35.704952 ], [ -76.244095, 35.701308 ], [ -76.251418, 35.700419 ], [ -76.269316, 35.690556 ] ] ] } },
{ "type": "Feature", "properties": { "vtd": "3717715", "county_nam": "TYRRELL", "fips": "37177" }, "geometry": { "type": "Polygon", "coordinates": [ [ [ -76.342389, 35.864419 ], [ -76.340952, 35.870945 ], [ -76.331717, 35.887565 ], [ -76.314384, 35.887009 ], [ -76.308348, 35.89027 ], [ -76.299514, 35.884953 ], [ -76.291649, 35.888103 ], [ -76.275709, 35.881844 ], [ -76.264756, 35.888817 ], [ -76.263514, 35.894741 ], [ -76.256468, 35.900838 ], [ -76.261471, 35.907941 ], [ -76.26068, 35.91458 ], [ -76.254907, 35.917058 ], [ -76.261451, 35.923782 ], [ -76.272723, 35.921079 ], [ -76.280124, 35.920918 ], [ -76.281745, 35.926301 ], [ -76.288793, 35.932341 ], [ -76.306286, 35.934513 ], [ -76.31318, 35.939375 ], [ -76.319309, 35.940403 ], [ -76.3306, 35.950078 ], [ -76.345126, 35.96889 ], [ -76.350224, 35.97806 ], [ -76.35844, 36.002689 ], [ -76.358141, 35.951564 ], [ -76.364444, 35.946321 ], [ -76.367703, 35.929999 ], [ -76.380009, 35.914666 ], [ -76.373104, 35.899227 ], [ -76.369646, 35.883233 ], [ -76.360222, 35.87557 ], [ -76.353554, 35.861301 ], [ -76.346158, 35.865473 ], [ -76.342389, 35.864419 ] ] ] } },
{ "type": "Feature", "properties": { "vtd": "3717716", "county_nam": "TYRRELL", "fips": "37177" }, "geometry": { "type": "Polygon", "coordinates": [ [ [ -76.353554, 35.861301 ], [ -76.405603, 35.786294 ], [ -76.405475, 35.731239 ], [ -76.405971, 35.697579 ], [ -76.317053, 35.693048 ], [ -76.335345, 35.818716 ], [ -76.338174, 35.834405 ], [ -76.342389, 35.864419 ], [ -76.346158, 35.865473 ], [ -76.353554, 35.861301 ] ] ] } },
{ "type": "Feature", "properties": { "vtd": "371772", "county_nam": "TYRRELL", "fips": "37177" }, "geometry": { "type": "Polygon", "coordinates": [ [ [ -76.338174, 35.834405 ], [ -76.258853, 35.833939 ], [ -76.24925, 35.833523 ], [ -76.204766, 35.833513 ], [ -76.200181, 35.8241 ], [ -76.195244, 35.807817 ], [ -76.158793, 35.815261 ], [ -76.17907, 35.875159 ], [ -76.202678, 35.923298 ], [ -76.176889, 35.971114 ], [ -76.152443, 36.015503 ], [ -76.125756, 36.064906 ], [ -76.156445, 36.059933 ], [ -76.163654, 36.057566 ], [ -76.181729, 36.049007 ], [ -76.212946, 36.041613 ], [ -76.229783, 36.040665 ], [ -76.267089, 36.034337 ], [ -76.296965, 36.028737 ], [ -76.32585, 36.021403 ], [ -76.33909, 36.019141 ], [ -76.358393, 36.020019 ], [ -76.35844, 36.002689 ], [ -76.350224, 35.97806 ], [ -76.345126, 35.96889 ], [ -76.3306, 35.950078 ], [ -76.319309, 35.940403 ], [ -76.31318, 35.939375 ], [ -76.306286, 35.934513 ], [ -76.288793, 35.932341 ], [ -76.281745, 35.926301 ], [ -76.280124, 35.920918 ], [ -76.272723, 35.921079 ], [ -76.261451, 35.923782 ], [ -76.254907, 35.917058 ], [ -76.26068, 35.91458 ], [ -76.261471, 35.907941 ], [ -76.256468, 35.900838 ], [ -76.263514, 35.894741 ], [ -76.264756, 35.888817 ], [ -76.275709, 35.881844 ], [ -76.291649, 35.888103 ], [ -76.299514, 35.884953 ], [ -76.308348, 35.89027 ], [ -76.314384, 35.887009 ], [ -76.331717, 35.887565 ], [ -76.340952, 35.870945 ], [ -76.342389, 35.864419 ], [ -76.338174, 35.834405 ] ] ] } },
{ "type": "Feature", "properties": { "vtd": "371773", "county_nam": "TYRRELL", "fips": "37177" }, "geometry": { "type": "Polygon", "coordinates": [ [ [ -76.269316, 35.690556 ], [ -76.251418, 35.700419 ], [ -76.244095, 35.701308 ], [ -76.240957, 35.704952 ], [ -76.240331, 35.717936 ], [ -76.231225, 35.731776 ], [ -76.222128, 35.73302 ], [ -76.215155, 35.726752 ], [ -76.196678, 35.727315 ], [ -76.18982, 35.721411 ], [ -76.186107, 35.713696 ], [ -76.177986, 35.705915 ], [ -76.169589, 35.701957 ], [ -76.168555, 35.698874 ], [ -76.164278, 35.695917 ], [ -76.150023, 35.699628 ], [ -76.144653, 35.702488 ], [ -76.137045, 35.699853 ], [ -76.130072, 35.690779 ], [ -76.123715, 35.69312 ], [ -76.11788, 35.690013 ], [ -76.12067, 35.683316 ], [ -76.114615, 35.677981 ], [ -76.108187, 35.679132 ], [ -76.101952, 35.67647 ], [ -76.099707, 35.671097 ], [ -76.092627, 35.669764 ], [ -76.083883, 35.675048 ], [ -76.07652, 35.672078 ], [ -76.061095, 35.675222 ], [ -76.056976, 35.674005 ], [ -76.042749, 35.663835 ], [ -76.035564, 35.661495 ], [ -76.027864, 35.668106 ], [ -76.020502, 35.68735 ], [ -76.022573, 35.699927 ], [ -76.027415, 35.718894 ], [ -76.026298, 35.727612 ], [ -76.022078, 35.740145 ], [ -76.019276, 35.752763 ], [ -76.02239, 35.81066 ], [ -76.020573, 35.841085 ], [ -76.084862, 35.828699 ], [ -76.158793, 35.815261 ], [ -76.195244, 35.807817 ], [ -76.200181, 35.8241 ], [ -76.204766, 35.833513 ], [ -76.24925, 35.833523 ], [ -76.258853, 35.833939 ], [ -76.338174, 35.834405 ], [ -76.335345, 35.818716 ], [ -76.317053, 35.693048 ], [ -76.269316, 35.690556 ] ] ] } }
]
}
